STARLINK-30703          
1 57954U 23148V   26062.16336959  .00000931  00000+0  43560-4 0  9990
2 57954  53.1611  44.4846 0001555  86.2060 273.9118 15.30203647137561
STARLINK-30702          
1 57955U 23148W   26062.16759426  .00000684  00000+0  35204-4 0  9990
2 57955  53.1608  44.5035 0001243  87.2107 272.9036 15.30197611137567
SKYKRAFT-3D             
1 57956U 23084BZ  26061.98177514  .00070158  00000+0  77579-3 0  9994
2 57956  97.5978 211.8832 0004411 286.5882  73.4891 15.62796622138496
YAOGAN-33 04            
1 57958U 23149A   26062.21431767  .00000730  00000+0  16665-3 0  9996
2 57958  98.1859  13.0832 0001307  50.8278 309.3037 14.58612283129551
STARLINK-30396          
1 57964U 23151A   26062.16668981  .01030151  00000+0  40010-1 0  9990
2 57964  42.9999  13.0385 0001545 292.7829 172.5346 15.22464538  5710
STARLINK-30524          
1 57965U 23151B   26062.16668981  .01191275  00000+0  43174-1 0  9990
2 57965  43.0020  13.0124 0001613 259.4621 220.3704 15.24854072  5825
STARLINK-30521          
1 57966U 23151C   26062.16668981  .00036869  00000+0  13781-2 0  9999
2 57966  43.0012  12.6077 0001511 277.6369   8.1636 15.26721321  5779
STARLINK-30528          
1 57967U 23151D   26062.16668981  .00029720  00000+0  11127-2 0  9990
2 57967  43.0012  12.6690 0001754 270.3448 348.8991 15.26753259  5771
STARLINK-30495          
1 57968U 23151E   26062.16668981  .00023480  00000+0  88282-3 0  9995
2 57968  43.0018  12.8019 0001860 274.1183 288.9596 15.26717370  5613
STARLINK-30494          
1 57970U 23151G   26061.49867119 -.00000047  00000+0  77351-5 0  9999
2 57970  43.0065 231.2536 0002441 263.5754  96.4820 15.28414727136351
STARLINK-30498          
1 57971U 23151H   26062.00002314 -.00007188  00000+0 -25850-3 0  9995
2 57971  43.0019  13.7020 0001642 263.3098 114.3196 15.26745895  5793
STARLINK-30505          
1 57972U 23151J   26062.16668981  .00020433  00000+0  76952-3 0  9996
2 57972  43.0006  13.0163 0001476 262.1770 205.1332 15.26730256  5763
STARLINK-30502          
1 57973U 23151K   26062.19107020  .00000085  00000+0  12840-4 0  9990
2 57973  43.0011  12.5975 0001508 281.5050  78.5632 15.26746020134772
STARLINK-30489          
1 57974U 23151L   26062.16668981  .00031014  00000+0  11614-2 0  9998
2 57974  43.0010  12.7510 0001890 270.7072 309.7246 15.26729089  5679
STARLINK-30503          
1 57975U 23151M   26062.16668981  .00026822  00000+0  98087-3 0  9990
2 57975  43.0002  13.1600 0001400 255.7495 141.9808 15.27573074  5813
STARLINK-30512          
1 57976U 23151N   26062.16668981  .00757355  00000+0  27694-1 0  9997
2 57976  43.0044  12.6255 0001617 283.6545 326.3771 15.24903435  5718
STARLINK-30509          
1 57977U 23151P   26062.16668981  .02098787  00000+0  98183-1 0  9998
2 57977  43.0004  27.2415 0001486 267.9076 287.4480 15.15812839  5826
STARLINK-30511          
1 57978U 23151Q   26062.16668981  .02152662  00000+0  99772-1 0  9997
2 57978  42.9997  27.1522 0001780 278.0332 314.3724 15.16055846  5828
STARLINK-30508          
1 57979U 23151R   26062.16668981  .01116285  00000+0  54535-1 0  9996
2 57979  43.0006  27.1825 0001780 274.7706 302.6700 15.14730562  5823
STARLINK-30504          
1 57980U 23151S   26062.16668981  .00385167  63077-4  11915-2 0  9998
2 57980  42.9779 246.2841 0026561 297.4698 183.9858 15.90274916  5967
STARLINK-30510          
1 57981U 23151T   26061.94740244  .00000307  00000+0  37765-4 0  9992
2 57981  43.0035  28.6360 0000914 279.7804  80.2935 15.02536243134560
STARLINK-30507          
1 57982U 23151U   26061.94406468 -.00000096  00000+0  79928-5 0  9994
2 57982  43.0049  28.6099 0001198 265.2368  94.8338 15.02533014134566
STARLINK-30515          
1 57983U 23151V   26061.94072830  .00000225  00000+0  31753-4 0  9993
2 57983  43.0054  28.5853 0001323 263.6451  96.4240 15.02536534134565
STARLINK-30516          
1 57984U 23151W   26061.60500682  .00001895  00000+0  15530-3 0  9996
2 57984  43.0050  30.3663 0001278 267.1231  92.9465 15.02541368134512
STARLINK-30519          
1 57985U 23151X   26062.16668981  .01237545  00000+0  66664-1 0  9992
2 57985  43.0005  27.1322 0001631 279.9166 319.0625 15.11397804  5815
YAOGAN-39 03A           
1 57986U 23152A   26061.87160424  .00015196  00000+0  62831-3 0  9999
2 57986  34.9984 221.1280 0004180 285.6228  74.4025 15.23140233134224
YAOGAN-39 03B           
1 57988U 23152C   26061.94833955  .00007489  00000+0  37107-3 0  9999
2 57988  34.9890 238.7019 0019788 354.8823   5.1685 15.16890990134043
YAOGAN-39 03C           
1 57990U 23152E   26061.94378674  .00006978  00000+0  34644-3 0  9999
2 57990  34.9892 238.6334 0010762 272.7785  87.1696 15.16954676134016
STARLINK-30537          
1 57991U 23153A   26062.16668981  .01199742  00000+0  48506-1 0  9992
2 57991  42.9996 103.6661 0001636 247.1841  31.6756 15.21123882  5565
STARLINK-30534          
1 57992U 23153B   26062.16668981  .00099208  00000+0  36804-2 0  9997
2 57992  43.0003 103.5732 0001715 240.7695  76.5092 15.26543722  5610
STARLINK-30536          
1 57993U 23153C   26062.16668981  .02312377  00000+0  82709-1 0  9999
2 57993  43.0002 103.5562 0001690 285.9140  41.0265 15.24737521  5810
STARLINK-30538          
1 57994U 23153D   26062.16668981  .02120838  00000+0  90111-1 0  9995
2 57994  42.9996 103.8128 0001288 260.1049 315.7187 15.19148926  5811
STARLINK-30517          
1 57995U 23153E   26062.16668981  .01026611  00000+0  45883-1 0  9995
2 57995  43.0007 103.8181 0001254 260.7362 313.4398 15.18096180  5815
STARLINK-30523          
1 57997U 23153G   26062.16668981  .02076903  00000+0  82416-1 0  9990
2 57997  43.0000 103.7256 0001502 280.5156 331.7440 15.21572807  5763
STARLINK-30531          
1 57998U 23153H   26062.16668981  .02222131  00000+0  97038-1 0  9993
2 57998  43.0000 103.4768 0001581 263.7586  95.7416 15.18036372  5810
STARLINK-30552          
1 57999U 23153J   26062.16668981  .02458351  00000+0  10701+0 0  9999
2 57999  42.9996 103.8318 0001259 263.2123 305.3481 15.17771499  5820
STARLINK-30545          
1 58000U 23153K   26062.16668981  .01947623  00000+0  74072-1 0  9990
2 58000  42.9995 103.3878 0001175 259.9284 133.5309 15.22691754  5827
STARLINK-30535          
1 58001U 23153L   26062.16668981  .02187953  00000+0  84958-1 0  9998
2 58001  42.9994 103.4426 0001252 273.7862  95.0864 15.22143040  5771
STARLINK-30540          
1 58002U 23153M   26062.16668981  .00217770  00000+0  79332-2 0  9999
2 58002  43.0025 103.5735 0001588 254.6963  57.1278 15.26563565  5562
STARLINK-30546          
1 58003U 23153N   26062.16668981  .01888057  00000+0  69877-1 0  9995
2 58003  43.0000 103.3040 0001448 235.7445 192.9363 15.23723062  5721
STARLINK-30539          
1 58004U 23153P   26062.16668981  .02132150  00000+0  82762-1 0  9991
2 58004  42.9995 103.3224 0000928 271.2974 149.9555 15.22239082  5763
STARLINK-30530          
1 58005U 23153Q   26062.16668981  .02233494  00000+0  94723-1 0  9995
2 58005  42.9999 103.4535 0001493 263.2393 102.5234 15.19037194  5819
STARLINK-30526          
1 58006U 23153R   26062.08395556  .00004540  00000+0  24277-3 0  9997
2 58006  43.0013  78.5219 0000512 326.8766  33.2050 15.16156640134185
STARLINK-30527          
1 58007U 23153S   26061.91555116  .00001708  00000+0  71558-4 0  9997
2 58007  42.9983 236.6328 0000851 259.7466 100.3290 15.27586100136426
STARLINK-30522          
1 58008U 23153T   26062.16668981  .02259553  00000+0  10123+0 0  9992
2 58008  43.0003 103.8715 0001082 246.4114 301.7445 15.17079177  5825
STARLINK-30486          
1 58009U 23153U   26062.16668981  .02310761  00000+0  97576-1 0  9991
2 58009  43.0007 103.5035 0001739 261.4479  81.4790 15.19067642  5766
STARLINK-30520          
1 58010U 23153V   26062.16668981  .00102987  00000+0  38006-2 0  9994
2 58010  43.0030 103.5017 0001553 241.4729 100.9815 15.26697064  5810
STARLINK-30497          
1 58011U 23153W   26062.16668981  .00077258  00000+0  28694-2 0  9999
2 58011  43.0007 103.5124 0001347 248.6817  88.0452 15.26629564  5815
STARLINK-30525          
1 58012U 23153X   26062.16668981  .01987275  00000+0  72767-1 0  9999
2 58012  43.0007 103.6016 0001610 275.0312  22.0052 15.23908734  5768
THEOS-2 (T2V)           
1 58016U 23155A   26062.22146726  .00001160  00000+0  15372-3 0  9990
2 58016  97.8974 134.7585 0001318  93.4522 266.6842 14.81751234129739
FORMOSAT-7R (TRITON)    
1 58017U 23155B   26062.20116991  .00001862  00000+0  19521-3 0  9999
2 58017  97.8405 144.3502 0002477  86.8565 273.2937 14.90746387130436
ANSER FOLLOWER 2        
1 58018U 23155C   26061.76293760  .00021202  00000+0  58499-3 0  9997
2 58018  97.5584 147.0861 0000755 145.2744 214.8549 15.37116443132557
ANSER FOLLOWER 1        
1 58019U 23155D   26061.82990940  .00030671  00000+0  83827-3 0  9992
2 58019  97.5630 147.7536 0001598 125.0105 235.1289 15.37335012132562
NESS                    
1 58020U 23155E   26062.14442169  .00020587  00000+0  79046-3 0  9998
2 58020  97.5956 145.8823 0006494 202.7410 157.3541 15.26470312132292
CSC-2                   
1 58021U 23155F   26062.20202469  .00012597  00000+0  59322-3 0  9990
2 58021  97.5514 138.7245 0004172 233.4127 126.6724 15.19660775132073
CSC-1                   
1 58022U 23155G   26062.17973520  .00004558  00000+0  28502-3 0  9994
2 58022  97.5469 133.2687 0006837 236.5683 123.4893 15.09908177131738
PRETTY                  
1 58023U 23155H   26062.15513335  .00010408  00000+0  45643-3 0  9993
2 58023  97.5750 142.8675 0002488  72.1563 287.9944 15.22168720132218
MACSAT (FINCH 1)        
1 58024U 23155J   26062.17121502  .00005862  00000+0  27849-3 0  9993
2 58024  97.5833 143.6545 0003940  85.6244 274.5440 15.19611429132224
PVCC                    
1 58025U 23155K   26062.21534266  .00009004  00000+0  49164-3 0  9990
2 58025  97.5787 139.1196 0005606 130.5652 229.6069 15.14547903131934
